{
  "norad_id": 68909,
  "name": "STARLINK-37544",
  "history": [
    {
      "epoch": "2026-05-04T18:00:02.000160Z",
      "apogee_km": 277.29547731008734,
      "perigee_km": 275.34039844933795,
      "latitude_deg": -59.610109207210506,
      "longitude_deg": -5.4854010464494545,
      "height_km": 300.1730548632475,
      "semi_major_axis_km": 6654.454937879712,
      "eccentricity": 0.0001469,
      "inclination_deg": 97.2865,
      "raan_deg": 319.6786,
      "arg_perigee_deg": 97.2825,
      "mean_anomaly_deg": 142.8883,
      "mean_motion_rev_day": 15.99315069
    },
    {
      "epoch": "2026-05-05T20:00:03.000384Z",
      "apogee_km": 289.2803494116488,
      "perigee_km": 287.6643633036683,
      "latitude_deg": -15.375224211491677,
      "longitude_deg": 159.141295438499,
      "height_km": 295.17419089397697,
      "semi_major_axis_km": 6666.609356357659,
      "eccentricity": 0.0001212,
      "inclination_deg": 97.2874,
      "raan_deg": 320.8527,
      "arg_perigee_deg": 94.3875,
      "mean_anomaly_deg": 250.343,
      "mean_motion_rev_day": 15.94943308
    }
  ]
}